start=new Date('2022-07-18T00:00:00.000Z').valueOf();
sats=[{"ELEMENT_SET_NO":"999","TLE_LINE1":"1 46171U 20057BG  22198.58786999  .00000976  00000-0  84372-4 0  9996","MEAN_MOTION":"15.06402707","COUNTRY_CODE":"US","OBJECT_TYPE":"PAYLOAD","NORAD_CAT_ID":"46171","APOAPSIS":"548.239","ECCENTRICITY":"0.00014930","OBJECT_ID":"2020-057BG","LAUNCH_DATE":"2020-08-18","GP_ID":"208335849","BSTAR":"0.00008437200000","RA_OF_ASC_NODE":"152.1616","SEMIMAJOR_AXIS":"6925.340","ARG_OF_PERICENTER":"76.3286","MEAN_ANOMALY":"283.7870","OBJECT_NAME":"STARLINK-1633","MEAN_MOTION_DDOT":"0.0000000000000","MEAN_MOTION_DOT":"0.00000976","DECAY_DATE":null,"FILE":"3516387","RCS_SIZE":"LARGE","TIME_SYSTEM":"UTC","PERIOD":"95.592","CENTER_NAME":"EARTH","SITE":"AFETR","INCLINATION":"53.0545","REV_AT_EPOCH":"10697","TLE_LINE2":"2 46171  53.0545 152.1616 0001493  76.3286 283.7870 15.06402707106974","MEAN_ELEMENT_THEORY":"SGP4","CLASSIFICATION_TYPE":"U","PERIAPSIS":"546.171","EPOCH":"2022-07-17T14:06:31.967136","EPHEMERIS_TYPE":"0","REF_FRAME":"TEME"},{"TLE_LINE1":"1 46172U 20057BH  22198.60260197  .00000305  00000-0  39348-4 0  9996","MEAN_MOTION":"15.06405015","ELEMENT_SET_NO":"999","COUNTRY_CODE":"US","OBJECT_TYPE":"PAYLOAD","APOAPSIS":"548.333","NORAD_CAT_ID":"46172","OBJECT_ID":"2020-057BH","LAUNCH_DATE":"2020-08-18","ECCENTRICITY":"0.00016390","GP_ID":"208336099","BSTAR":"0.00003934800000","RA_OF_ASC_NODE":"152.0949","SEMIMAJOR_AXIS":"6925.333","ARG_OF_PERICENTER":"65.4449","MEAN_MOTION_DOT":"0.00000305","MEAN_MOTION_DDOT":"0.0000000000000","DECAY_DATE":null,"MEAN_ANOMALY":"294.6711","OBJECT_NAME":"STARLINK-1635","FILE":"3516387","RCS_SIZE":"LARGE","TIME_SYSTEM":"UTC","REV_AT_EPOCH":"10697","TLE_LINE2":"2 46172  53.0532 152.0949 0001639  65.4449 294.6711 15.06405015106971","PERIOD":"95.592","CENTER_NAME":"EARTH","SITE":"AFETR","INCLINATION":"53.0532","MEAN_ELEMENT_THEORY":"SGP4","EPOCH":"2022-07-17T14:27:44.810208","REF_FRAME":"TEME","EPHEMERIS_TYPE":"0","PERIAPSIS":"546.063","CLASSIFICATION_TYPE":"U"},{"APOAPSIS":"548.584","NORAD_CAT_ID":"46173","OBJECT_ID":"2020-057BJ","LAUNCH_DATE":"2020-08-18","ECCENTRICITY":"0.00020170","BSTAR":"0.00007261000000","GP_ID":"208336849","RA_OF_ASC_NODE":"171.9012","TLE_LINE1":"1 46173U 20057BJ  22198.64867470  .00000800  00000-0  72610-4 0  9997","MEAN_MOTION":"15.06408773","ELEMENT_SET_NO":"999","COUNTRY_CODE":"US","OBJECT_TYPE":"PAYLOAD","FILE":"3516387","RCS_SIZE":"LARGE","TIME_SYSTEM":"UTC","REV_AT_EPOCH":"10544","TLE_LINE2":"2 46173  53.0529 171.9012 0002017  56.1391 303.9789 15.06408773105447","PERIOD":"95.592","CENTER_NAME":"EARTH","INCLINATION":"53.0529","SITE":"AFETR","MEAN_ELEMENT_THEORY":"SGP4","EPOCH":"2022-07-17T15:34:05.494080","EPHEMERIS_TYPE":"0","REF_FRAME":"TEME","PERIAPSIS":"545.790","CLASSIFICATION_TYPE":"U","SEMIMAJOR_AXIS":"6925.322","ARG_OF_PERICENTER":"56.1391","MEAN_MOTION_DOT":"0.00000800","MEAN_MOTION_DDOT":"0.0000000000000","DECAY_DATE":null,"MEAN_ANOMALY":"303.9789","OBJECT_NAME":"STARLINK-1640"},{"BSTAR":"-0.00001331700000","GP_ID":"208337091","RA_OF_ASC_NODE":"171.8665","NORAD_CAT_ID":"46174","APOAPSIS":"548.490","ECCENTRICITY":"0.00018080","OBJECT_ID":"2020-057BK","LAUNCH_DATE":"2020-08-18","COUNTRY_CODE":"US","OBJECT_TYPE":"PAYLOAD","ELEMENT_SET_NO":"999","TLE_LINE1":"1 46174U 20057BK  22198.65606184 -.00000480  00000-0 -13317-4 0  9997","MEAN_MOTION":"15.06392020","MEAN_ELEMENT_THEORY":"SGP4","CLASSIFICATION_TYPE":"U","PERIAPSIS":"545.986","EPOCH":"2022-07-17T15:44:43.742976","EPHEMERIS_TYPE":"0","REF_FRAME":"TEME","FILE":"3516387","RCS_SIZE":"LARGE","TIME_SYSTEM":"UTC","PERIOD":"95.593","CENTER_NAME":"EARTH","INCLINATION":"53.0529","SITE":"AFETR","REV_AT_EPOCH":"10544","TLE_LINE2":"2 46174  53.0529 171.8665 0001808  54.8863 305.2295 15.06392020105441","SEMIMAJOR_AXIS":"6925.373","ARG_OF_PERICENTER":"54.8863","MEAN_ANOMALY":"305.2295","OBJECT_NAME":"STARLINK-1641","MEAN_MOTION_DDOT":"0.0000000000000","MEAN_MOTION_DOT":"-0.00000480","DECAY_DATE":null},{"GP_ID":"208335611","BSTAR":"0.00033702000000","RA_OF_ASC_NODE":"186.8220","NORAD_CAT_ID":"46325","APOAPSIS":"548.396","ECCENTRICITY":"0.00017820","LAUNCH_DATE":"2020-09-03","OBJECT_ID":"2020-062A","COUNTRY_CODE":"US","OBJECT_TYPE":"PAYLOAD","ELEMENT_SET_NO":"999","MEAN_MOTION":"15.06416766","TLE_LINE1":"1 46325U 20062A   22198.66758125  .00004744  00000-0  33702-3 0  9999","MEAN_ELEMENT_THEORY":"SGP4","CLASSIFICATION_TYPE":"U","PERIAPSIS":"545.928","EPHEMERIS_TYPE":"0","REF_FRAME":"TEME","EPOCH":"2022-07-17T16:01:19.020000","RCS_SIZE":"LARGE","TIME_SYSTEM":"UTC","FILE":"3516387","SITE":"AFETR","INCLINATION":"53.0537","CENTER_NAME":"EARTH","PERIOD":"95.591","TLE_LINE2":"2 46325  53.0537 186.8220 0001782  49.7482 310.3663 15.06416766104935","REV_AT_EPOCH":"10493","ARG_OF_PERICENTER":"49.7482","SEMIMAJOR_AXIS":"6925.297","OBJECT_NAME":"STARLINK-1734","MEAN_ANOMALY":"310.3663","DECAY_DATE":null,"MEAN_MOTION_DOT":"0.00004744","MEAN_MOTION_DDOT":"0.0000000000000"},{"OBJECT_ID":"2020-062B","LAUNCH_DATE":"2020-09-03","ECCENTRICITY":"0.00017320","APOAPSIS":"548.444","NORAD_CAT_ID":"46326","RA_OF_ASC_NODE":"231.4747","GP_ID":"208336361","BSTAR":"-0.00003828800000","TLE_LINE1":"1 46326U 20062B   22198.79800078 -.00000852  00000-0 -38288-4 0  9992","MEAN_MOTION":"15.06390000","ELEMENT_SET_NO":"999","OBJECT_TYPE":"PAYLOAD","COUNTRY_CODE":"US","REV_AT_EPOCH":"10371","TLE_LINE2":"2 46326  53.0558 231.4747 0001732  59.8886 300.2274 15.06390000103718","CENTER_NAME":"EARTH","PERIOD":"95.593","SITE":"AFETR","INCLINATION":"53.0558","FILE":"3516387","TIME_SYSTEM":"UTC","RCS_SIZE":"LARGE","EPOCH":"2022-07-17T19:09:07.267392","EPHEMERIS_TYPE":"0","REF_FRAME":"TEME","PERIAPSIS":"546.045","CLASSIFICATION_TYPE":"U","MEAN_ELEMENT_THEORY":"SGP4","MEAN_MOTION_DOT":"-0.00000852","MEAN_MOTION_DDOT":"0.0000000000000","DECAY_DATE":null,"MEAN_ANOMALY":"300.2274","OBJECT_NAME":"STARLINK-1654","SEMIMAJOR_AXIS":"6925.379","ARG_OF_PERICENTER":"59.8886"},{"BSTAR":"0.00007988000000","GP_ID":"208336603","RA_OF_ASC_NODE":"231.1261","NORAD_CAT_ID":"46327","APOAPSIS":"548.144","ECCENTRICITY":"0.00013540","LAUNCH_DATE":"2020-09-03","OBJECT_ID":"2020-062C","COUNTRY_CODE":"US","OBJECT_TYPE":"PAYLOAD","ELEMENT_SET_NO":"999","MEAN_MOTION":"15.06402259","TLE_LINE1":"1 46327U 20062C   22198.82008471  .00000909  00000-0  79880-4 0  9998","MEAN_ELEMENT_THEORY":"SGP4","CLASSIFICATION_TYPE":"U","PERIAPSIS":"546.269","REF_FRAME":"TEME","EPHEMERIS_TYPE":"0","EPOCH":"2022-07-17T19:40:55.318944","RCS_SIZE":"LARGE","TIME_SYSTEM":"UTC","FILE":"3516387","SITE":"AFETR","INCLINATION":"53.0515","PERIOD":"95.592","CENTER_NAME":"EARTH","TLE_LINE2":"2 46327  53.0515 231.1261 0001354  89.5878 270.5266 15.06402259103711","REV_AT_EPOCH":"10371","ARG_OF_PERICENTER":"89.5878","SEMIMAJOR_AXIS":"6925.342","OBJECT_NAME":"STARLINK-1673","MEAN_ANOMALY":"270.5266","DECAY_DATE":null,"MEAN_MOTION_DDOT":"0.0000000000000","MEAN_MOTION_DOT":"0.00000909"},{"COUNTRY_CODE":"US","OBJECT_TYPE":"PAYLOAD","MEAN_MOTION":"15.06410211","TLE_LINE1":"1 46328U 20062D   22198.73345886 -.00001932  00000-0 -11079-3 0  9997","ELEMENT_SET_NO":"999","GP_ID":"208335861","BSTAR":"-0.00011079000000","RA_OF_ASC_NODE":"211.5263","APOAPSIS":"548.469","NORAD_CAT_ID":"46328","LAUNCH_DATE":"2020-09-03","OBJECT_ID":"2020-062D","ECCENTRICITY":"0.00018580","ARG_OF_PERICENTER":"46.8822","SEMIMAJOR_AXIS":"6925.317","DECAY_DATE":null,"MEAN_MOTION_DDOT":"0.0000000000000","MEAN_MOTION_DOT":"-0.00001932","OBJECT_NAME":"STARLINK-1686","MEAN_ANOMALY":"313.2322","MEAN_ELEMENT_THEORY":"SGP4","REF_FRAME":"TEME","EPHEMERIS_TYPE":"0","EPOCH":"2022-07-17T17:36:10.845504","CLASSIFICATION_TYPE":"U","PERIAPSIS":"545.896","RCS_SIZE":"LARGE","TIME_SYSTEM":"UTC","FILE":"3516387","TLE_LINE2":"2 46328  53.0546 211.5263 0001858  46.8822 313.2322 15.06410211103988","REV_AT_EPOCH":"10398","SITE":"AFETR","INCLINATION":"53.0546","PERIOD":"95.591","CENTER_NAME":"EARTH"},{"COUNTRY_CODE":"US","OBJECT_TYPE":"PAYLOAD","ELEMENT_SET_NO":"999","TLE_LINE1":"1 46329U 20062E   22198.76664798  .00003483  00000-0  25256-3 0  9990","MEAN_MOTION":"15.06405666","GP_ID":"208336111","BSTAR":"0.00025256000000","RA_OF_ASC_NODE":"211.3682","NORAD_CAT_ID":"46329","APOAPSIS":"548.452","ECCENTRICITY":"0.00018130","OBJECT_ID":"2020-062E","LAUNCH_DATE":"2020-09-03","SEMIMAJOR_AXIS":"6925.331","ARG_OF_PERICENTER":"58.6859","MEAN_ANOMALY":"301.4307","OBJECT_NAME":"STARLINK-1695","MEAN_MOTION_DDOT":"0.0000000000000","MEAN_MOTION_DOT":"0.00003483","DECAY_DATE":null,"MEAN_ELEMENT_THEORY":"SGP4","PERIAPSIS":"545.941","CLASSIFICATION_TYPE":"U","EPOCH":"2022-07-17T18:23:58.385472","EPHEMERIS_TYPE":"0","REF_FRAME":"TEME","FILE":"3516387","RCS_SIZE":"LARGE","TIME_SYSTEM":"UTC","CENTER_NAME":"EARTH","PERIOD":"95.592","INCLINATION":"53.0535","SITE":"AFETR","REV_AT_EPOCH":"10398","TLE_LINE2":"2 46329  53.0535 211.3682 0001813  58.6859 301.4307 15.06405666103982"},{"MEAN_MOTION":"15.06406877","TLE_LINE1":"1 46330U 20062F   22198.75558814  .00003870  00000-0  27853-3 0  9997","ELEMENT_SET_NO":"999","COUNTRY_CODE":"US","OBJECT_TYPE":"PAYLOAD","APOAPSIS":"548.313","NORAD_CAT_ID":"46330","LAUNCH_DATE":"2020-09-03","OBJECT_ID":"2020-062F","ECCENTRICITY":"0.00016180","GP_ID":"208336861","BSTAR":"0.00027853000000","RA_OF_ASC_NODE":"211.4057","ARG_OF_PERICENTER":"60.8049","SEMIMAJOR_AXIS":"6925.327","DECAY_DATE":null,"MEAN_MOTION_DDOT":"0.0000000000000","MEAN_MOTION_DOT":"0.00003870","OBJECT_NAME":"STARLINK-1710","MEAN_ANOMALY":"299.3102","TIME_SYSTEM":"UTC","RCS_SIZE":"LARGE","FILE":"3516387","TLE_LINE2":"2 46330  53.0526 211.4057 0001618  60.8049 299.3102 15.06406877103994","REV_AT_EPOCH":"10399","INCLINATION":"53.0526","SITE":"AFETR","PERIOD":"95.592","CENTER_NAME":"EARTH","MEAN_ELEMENT_THEORY":"SGP4","EPHEMERIS_TYPE":"0","REF_FRAME":"TEME","EPOCH":"2022-07-17T18:08:02.815296","CLASSIFICATION_TYPE":"U","PERIAPSIS":"546.072"}];
